start=new Date('2023-04-08T00:00:00.000Z').valueOf();
sats=[{"TLE_LINE1":"1 45742U 20038N   23097.16758007  .00023488  00000-0  15902-2 0  9994","ELEMENT_SET_NO":"999","EPHEMERIS_TYPE":"0","REV_AT_EPOCH":"15528","MEAN_MOTION":"15.06406010","REF_FRAME":"TEME","PERIOD":"95.592","OBJECT_TYPE":"PAYLOAD","TIME_SYSTEM":"UTC","BSTAR":"0.00159020000000","ARG_OF_PERICENTER":"99.9703","TLE_LINE2":"2 45742  53.0556 348.9108 0001055  99.9703 260.1406 15.06406010155282","MEAN_ELEMENT_THEORY":"SGP4","OBJECT_NAME":"STARLINK-1481","RA_OF_ASC_NODE":"348.9108","CLASSIFICATION_TYPE":"U","OBJECT_ID":"2020-038N","SEMIMAJOR_AXIS":"6925.330","LAUNCH_DATE":"2020-06-13","COUNTRY_CODE":"US","RCS_SIZE":"LARGE","DECAY_DATE":null,"SITE":"AFETR","ECCENTRICITY":"0.00010550","GP_ID":"229680274","CENTER_NAME":"EARTH","PERIAPSIS":"546.465","INCLINATION":"53.0556","MEAN_ANOMALY":"260.1406","EPOCH":"2023-04-07T04:01:18.918048","NORAD_CAT_ID":"45742","APOAPSIS":"547.926","MEAN_MOTION_DDOT":"0.0000000000000","MEAN_MOTION_DOT":"0.00023488","FILE":"3882626"},{"REV_AT_EPOCH":"15526","ELEMENT_SET_NO":"999","TLE_LINE1":"1 45743U 20038P   23096.98598806  .00002583  00000-0  19221-3 0  9995","EPHEMERIS_TYPE":"0","PERIOD":"95.592","MEAN_MOTION":"15.06402967","REF_FRAME":"TEME","OBJECT_TYPE":"PAYLOAD","TIME_SYSTEM":"UTC","BSTAR":"0.00019221000000","TLE_LINE2":"2 45743  53.0541 349.6497 0002006  94.1126 266.0092 15.06402967155260","ARG_OF_PERICENTER":"94.1126","MEAN_ELEMENT_THEORY":"SGP4","OBJECT_NAME":"STARLINK-1483","CLASSIFICATION_TYPE":"U","RA_OF_ASC_NODE":"349.6497","SEMIMAJOR_AXIS":"6925.339","OBJECT_ID":"2020-038P","COUNTRY_CODE":"US","LAUNCH_DATE":"2020-06-13","RCS_SIZE":"LARGE","ECCENTRICITY":"0.00020060","DECAY_DATE":null,"SITE":"AFETR","GP_ID":"229680524","CENTER_NAME":"EARTH","INCLINATION":"53.0541","PERIAPSIS":"545.815","MEAN_ANOMALY":"266.0092","EPOCH":"2023-04-06T23:39:49.368384","NORAD_CAT_ID":"45743","MEAN_MOTION_DDOT":"0.0000000000000","APOAPSIS":"548.594","FILE":"3882626","MEAN_MOTION_DOT":"0.00002583"},{"INCLINATION":"53.0543","PERIAPSIS":"546.551","MEAN_ANOMALY":"259.3179","CENTER_NAME":"EARTH","GP_ID":"229680774","FILE":"3882626","MEAN_MOTION_DOT":"0.00019479","MEAN_MOTION_DDOT":"0.0000000000000","APOAPSIS":"547.903","NORAD_CAT_ID":"45744","EPOCH":"2023-04-07T02:09:50.327712","CLASSIFICATION_TYPE":"U","RA_OF_ASC_NODE":"349.2571","OBJECT_NAME":"STARLINK-1500","MEAN_ELEMENT_THEORY":"SGP4","SITE":"AFETR","DECAY_DATE":null,"ECCENTRICITY":"0.00009760","RCS_SIZE":"LARGE","COUNTRY_CODE":"US","LAUNCH_DATE":"2020-06-13","SEMIMAJOR_AXIS":"6925.362","OBJECT_ID":"2020-038Q","TLE_LINE2":"2 45744  53.0543 349.2571 0000976 100.7920 259.3179 15.06395624155286","ARG_OF_PERICENTER":"100.7920","BSTAR":"0.00132310000000","PERIOD":"95.592","MEAN_MOTION":"15.06395624","REF_FRAME":"TEME","REV_AT_EPOCH":"15528","EPHEMERIS_TYPE":"0","TLE_LINE1":"1 45744U 20038Q   23097.09016583  .00019479  00000-0  13231-2 0  9992","ELEMENT_SET_NO":"999","TIME_SYSTEM":"UTC","OBJECT_TYPE":"PAYLOAD"},{"APOAPSIS":"548.319","MEAN_MOTION_DDOT":"0.0000000000000","MEAN_MOTION_DOT":"0.00008627","FILE":"3882626","EPOCH":"2023-04-07T06:40:32.058912","NORAD_CAT_ID":"45745","PERIAPSIS":"546.200","INCLINATION":"53.0539","MEAN_ANOMALY":"255.0522","GP_ID":"229681520","CENTER_NAME":"EARTH","RCS_SIZE":"LARGE","ECCENTRICITY":"0.00015300","DECAY_DATE":null,"SITE":"AFETR","OBJECT_ID":"2020-038R","SEMIMAJOR_AXIS":"6925.394","LAUNCH_DATE":"2020-06-13","COUNTRY_CODE":"US","RA_OF_ASC_NODE":"348.4125","CLASSIFICATION_TYPE":"U","MEAN_ELEMENT_THEORY":"SGP4","OBJECT_NAME":"STARLINK-1503","BSTAR":"0.00059759000000","ARG_OF_PERICENTER":"105.0636","TLE_LINE2":"2 45745  53.0539 348.4125 0001530 105.0636 255.0522 15.06385135155301","TIME_SYSTEM":"UTC","OBJECT_TYPE":"PAYLOAD","MEAN_MOTION":"15.06385135","REF_FRAME":"TEME","PERIOD":"95.593","TLE_LINE1":"1 45745U 20038R   23097.27814883  .00008627  00000-0  59759-3 0  9991","EPHEMERIS_TYPE":"0","ELEMENT_SET_NO":"999","REV_AT_EPOCH":"15530"},{"EPOCH":"2023-04-07T16:35:00.271104","NORAD_CAT_ID":"45746","APOAPSIS":"547.959","MEAN_MOTION_DDOT":"0.0000000000000","MEAN_MOTION_DOT":"0.00033056","FILE":"3882703","CENTER_NAME":"EARTH","GP_ID":"229689336","MEAN_ANOMALY":"309.9121","PERIAPSIS":"546.294","INCLINATION":"53.0552","OBJECT_ID":"2020-038S","SEMIMAJOR_AXIS":"6925.261","LAUNCH_DATE":"2020-06-13","COUNTRY_CODE":"US","RCS_SIZE":"LARGE","ECCENTRICITY":"0.00012020","DECAY_DATE":null,"SITE":"AFETR","MEAN_ELEMENT_THEORY":"SGP4","OBJECT_NAME":"STARLINK-1504","RA_OF_ASC_NODE":"346.5622","CLASSIFICATION_TYPE":"U","BSTAR":"0.00222600000000","ARG_OF_PERICENTER":"50.1973","TLE_LINE2":"2 45746  53.0552 346.5622 0001202  50.1973 309.9121 15.06428494156297","OBJECT_TYPE":"PAYLOAD","TIME_SYSTEM":"UTC","EPHEMERIS_TYPE":"0","TLE_LINE1":"1 45746U 20038S   23097.69097536  .00033056  00000-0  22260-2 0  9996","ELEMENT_SET_NO":"999","REV_AT_EPOCH":"15629","REF_FRAME":"TEME","MEAN_MOTION":"15.06428494","PERIOD":"95.590"},{"BSTAR":"0.00147240000000","ARG_OF_PERICENTER":"116.5307","TLE_LINE2":"2 45747  53.0554 349.2254 0000834 116.5307 243.5768 15.06401297155289","TIME_SYSTEM":"UTC","OBJECT_TYPE":"PAYLOAD","MEAN_MOTION":"15.06401297","REF_FRAME":"TEME","PERIOD":"95.592","TLE_LINE1":"1 45747U 20038T   23097.09753584  .00021719  00000-0  14724-2 0  9992","ELEMENT_SET_NO":"999","EPHEMERIS_TYPE":"0","REV_AT_EPOCH":"15528","APOAPSIS":"547.787","MEAN_MOTION_DDOT":"0.0000000000000","MEAN_MOTION_DOT":"0.00021719","FILE":"3882626","EPOCH":"2023-04-07T02:20:27.096576","NORAD_CAT_ID":"45747","PERIAPSIS":"546.632","INCLINATION":"53.0554","MEAN_ANOMALY":"243.5768","CENTER_NAME":"EARTH","GP_ID":"229680024","RCS_SIZE":"LARGE","DECAY_DATE":null,"ECCENTRICITY":"0.00008340","SITE":"AFETR","OBJECT_ID":"2020-038T","SEMIMAJOR_AXIS":"6925.345","LAUNCH_DATE":"2020-06-13","COUNTRY_CODE":"US","RA_OF_ASC_NODE":"349.2254","CLASSIFICATION_TYPE":"U","MEAN_ELEMENT_THEORY":"SGP4","OBJECT_NAME":"STARLINK-1506"},{"GP_ID":"229681274","CENTER_NAME":"EARTH","INCLINATION":"53.0538","PERIAPSIS":"546.458","MEAN_ANOMALY":"264.6233","NORAD_CAT_ID":"45748","EPOCH":"2023-04-07T02:03:10.298304","FILE":"3882626","MEAN_MOTION_DOT":"0.00022533","MEAN_MOTION_DDOT":"0.0000000000000","APOAPSIS":"548.015","OBJECT_NAME":"STARLINK-1507","MEAN_ELEMENT_THEORY":"SGP4","CLASSIFICATION_TYPE":"U","RA_OF_ASC_NODE":"349.2818","COUNTRY_CODE":"US","LAUNCH_DATE":"2020-06-13","SEMIMAJOR_AXIS":"6925.372","OBJECT_ID":"2020-038U","DECAY_DATE":null,"ECCENTRICITY":"0.00011240","SITE":"AFETR","RCS_SIZE":"LARGE","TLE_LINE2":"2 45748  53.0538 349.2818 0001124  95.4884 264.6233 15.06392434155278","ARG_OF_PERICENTER":"95.4884","BSTAR":"0.00152710000000","REV_AT_EPOCH":"15527","TLE_LINE1":"1 45748U 20038U   23097.08553586  .00022533  00000-0  15271-2 0  9995","EPHEMERIS_TYPE":"0","ELEMENT_SET_NO":"999","PERIOD":"95.593","MEAN_MOTION":"15.06392434","REF_FRAME":"TEME","OBJECT_TYPE":"PAYLOAD","TIME_SYSTEM":"UTC"},{"TLE_LINE2":"2 45750  53.0557 329.1618 0001364 109.4641 250.6496 15.06396930155574","ARG_OF_PERICENTER":"109.4641","BSTAR":"0.00002509700000","TIME_SYSTEM":"UTC","OBJECT_TYPE":"PAYLOAD","PERIOD":"95.592","REF_FRAME":"TEME","MEAN_MOTION":"15.06396930","REV_AT_EPOCH":"15557","TLE_LINE1":"1 45750U 20038W   23097.11409834  .00000092  00000-0  25097-4 0  9993","ELEMENT_SET_NO":"999","EPHEMERIS_TYPE":"0","FILE":"3882626","MEAN_MOTION_DOT":"0.00000092","MEAN_MOTION_DDOT":"0.0000000000000","APOAPSIS":"548.168","NORAD_CAT_ID":"45750","EPOCH":"2023-04-07T02:44:18.096576","INCLINATION":"53.0557","PERIAPSIS":"546.278","MEAN_ANOMALY":"250.6496","CENTER_NAME":"EARTH","GP_ID":"229681021","DECAY_DATE":null,"SITE":"AFETR","ECCENTRICITY":"0.00013640","RCS_SIZE":"LARGE","COUNTRY_CODE":"US","LAUNCH_DATE":"2020-06-13","SEMIMAJOR_AXIS":"6925.358","OBJECT_ID":"2020-038W","CLASSIFICATION_TYPE":"U","RA_OF_ASC_NODE":"329.1618","OBJECT_NAME":"STARLINK-1391","MEAN_ELEMENT_THEORY":"SGP4"},{"EPOCH":"2023-04-07T01:03:30.061152","NORAD_CAT_ID":"45751","MEAN_MOTION_DDOT":"0.0000000000000","APOAPSIS":"548.279","FILE":"3882699","MEAN_MOTION_DOT":"0.00009693","GP_ID":"229689758","CENTER_NAME":"EARTH","INCLINATION":"53.0528","PERIAPSIS":"546.246","MEAN_ANOMALY":"275.5855","SEMIMAJOR_AXIS":"6925.398","OBJECT_ID":"2020-038X","COUNTRY_CODE":"US","LAUNCH_DATE":"2020-06-13","RCS_SIZE":"LARGE","DECAY_DATE":null,"SITE":"AFETR","ECCENTRICITY":"0.00014680","MEAN_ELEMENT_THEORY":"SGP4","OBJECT_NAME":"STARLINK-1464","CLASSIFICATION_TYPE":"U","RA_OF_ASC_NODE":"329.4642","BSTAR":"0.00066898000000","TLE_LINE2":"2 45751  53.0528 329.4642 0001468  84.5301 275.5855 15.06383918156673","ARG_OF_PERICENTER":"84.5301","OBJECT_TYPE":"PAYLOAD","TIME_SYSTEM":"UTC","REV_AT_EPOCH":"15667","TLE_LINE1":"1 45751U 20038X   23097.04409793  .00009693  00000-0  66898-3 0  9999","EPHEMERIS_TYPE":"0","ELEMENT_SET_NO":"999","PERIOD":"95.593","REF_FRAME":"TEME","MEAN_MOTION":"15.06383918"},{"MEAN_MOTION":"15.06385346","REF_FRAME":"TEME","PERIOD":"95.593","EPHEMERIS_TYPE":"0","TLE_LINE1":"1 45753U 20038Z   23097.05514629  .00024420  00000-0  16533-2 0  9992","ELEMENT_SET_NO":"999","REV_AT_EPOCH":"15556","TIME_SYSTEM":"UTC","OBJECT_TYPE":"PAYLOAD","ARG_OF_PERICENTER":"69.2754","TLE_LINE2":"2 45753  53.0544 329.4202 0000930  69.2754 290.8335 15.06385346155567","BSTAR":"0.00165330000000","RA_OF_ASC_NODE":"329.4202","CLASSIFICATION_TYPE":"U","OBJECT_NAME":"STARLINK-1476","MEAN_ELEMENT_THEORY":"SGP4","DECAY_DATE":null,"ECCENTRICITY":"0.00009300","SITE":"AFETR","RCS_SIZE":"LARGE","LAUNCH_DATE":"2020-06-13","COUNTRY_CODE":"US","OBJECT_ID":"2020-038Z","SEMIMAJOR_AXIS":"6925.393","PERIAPSIS":"546.614","MEAN_ANOMALY":"290.8335","INCLINATION":"53.0544","GP_ID":"229680525","CENTER_NAME":"EARTH","MEAN_MOTION_DOT":"0.00024420","FILE":"3882626","APOAPSIS":"547.903","MEAN_MOTION_DDOT":"0.0000000000000","NORAD_CAT_ID":"45753","EPOCH":"2023-04-07T01:19:24.639456"}];
